[{"OBJECT_NAME":"STARLINK-31745","OBJECT_ID":"2024-136A","EPOCH":"2026-03-09T07:42:15.243264","MEAN_MOTION":15.30192081,"ECCENTRICITY":0.00011556,"INCLINATION":53.1612,"RA_OF_ASC_NODE":77.697,"ARG_OF_PERICENTER":83.3957,"MEAN_ANOMALY":276.7175,"EPHEMERIS_TYPE":0,"CLASSIFICATION_TYPE":"U","NORAD_CAT_ID":60329,"ELEMENT_SET_NO":999,"REV_AT_EPOCH":9081,"BSTAR":1.0808638e-5,"MEAN_MOTION_DOT":-3.9e-7,"MEAN_MOTION_DDOT":0},{"OBJECT_NAME":"OBJECT BC","OBJECT_ID":"2025-313BC","EPOCH":"2026-03-09T04:33:08.504064","MEAN_MOTION":15.29126358,"ECCENTRICITY":0.00084789,"INCLINATION":97.3985,"RA_OF_ASC_NODE":144.811,"ARG_OF_PERICENTER":328.9209,"MEAN_ANOMALY":31.1528,"EPHEMERIS_TYPE":0,"CLASSIFICATION_TYPE":"U","NORAD_CAT_ID":67298,"ELEMENT_SET_NO":999,"REV_AT_EPOCH":789,"BSTAR":0.0026410397,"MEAN_MOTION_DOT":0.00075331,"MEAN_MOTION_DDOT":0}]
